{
  "type": "FeatureCollection",
  "features": [
    {
      "type": "Feature",
      "properties": {
        "norad_id": 66914,
        "name": "2025-284B",
        "group": "last-30-days",
        "lat": 29.327780626638464,
        "lon": 133.22308199618186,
        "alt_km": 512.4509884627078,
        "timestamp": "2025-12-14T07:33:18.189453+00:00",
        "meta_object_name": "2025-284B",
        "meta_object_id": "2025-284B",
        "meta_epoch": "2025-12-13T15:36:51.440832",
        "meta_mean_motion": 15.18940116,
        "meta_eccentricity": 0.00083333,
        "meta_inclination": 80.405,
        "meta_ra_of_asc_node": 128.6113,
        "meta_arg_of_pericenter": 244.1066,
        "meta_mean_anomaly": 115.9302,
        "meta_ephemeris_type": 0,
        "meta_classification_type": "U",
        "meta_norad_cat_id": 66914,
        "meta_element_set_no": 999,
        "meta_rev_at_epoch": 126,
        "meta_bstar": 0.00052273624,
        "meta_mean_motion_dot": 0.00010952,
        "meta_mean_motion_ddot": 0,
        "tle_line1": "1 66914U 25284B   25347.65059538  .00010952  00000+0  52274-3 0  9998",
        "tle_line2": "2 66914  80.4050 128.6113 0008333 244.1066 115.9302 15.18940116  1263"
      },
      "geometry": {
        "type": "Point",
        "coordinates": [
          133.22308199618186,
          29.327780626638464
        ]
      }
    },
    {
      "type": "Feature",
      "properties": {
        "norad_id": 66915,
        "name": "HULIANWANG DIGUI-105",
        "group": "last-30-days",
        "lat": -37.25082992263027,
        "lon": -29.470389547305107,
        "alt_km": 881.6619136793988,
        "timestamp": "2025-12-14T07:33:18.189463+00:00",
        "meta_object_name": "HULIANWANG DIGUI-105",
        "meta_object_id": "2025-285A",
        "meta_epoch": "2025-12-13T16:47:02.372064",
        "meta_mean_motion": 14.03715414,
        "meta_eccentricity": 0.00079374,
        "meta_inclination": 50.0041,
        "meta_ra_of_asc_node": 113.3646,
        "meta_arg_of_pericenter": 285.9184,
        "meta_mean_anomaly": 74.0846,
        "meta_ephemeris_type": 0,
        "meta_classification_type": "U",
        "meta_norad_cat_id": 66915,
        "meta_element_set_no": 999,
        "meta_rev_at_epoch": 104,
        "meta_bstar": 4.8476516e-05,
        "meta_mean_motion_dot": -7.5e-07,
        "meta_mean_motion_ddot": 0,
        "tle_line1": "1 66915U 25285A   25347.69933301 -.00000075  00000+0  48477-4 0  9990",
        "tle_line2": "2 66915  50.0041 113.3646 0007937 285.9184  74.0846 14.03715414  1040"
      },
      "geometry": {
        "type": "Point",
        "coordinates": [
          -29.470389547305107,
          -37.25082992263027
        ]
      }
    },
    {
      "type": "Feature",
      "properties": {
        "norad_id": 66916,
        "name": "HULIANWANG DIGUI-106",
        "group": "last-30-days",
        "lat": -44.24465458026868,
        "lon": -14.321877572692491,
        "alt_km": 877.0890197782801,
        "timestamp": "2025-12-14T07:33:18.189473+00:00",
        "meta_object_name": "HULIANWANG DIGUI-106",
        "meta_object_id": "2025-285B",
        "meta_epoch": "2025-12-13T11:36:38.486592",
        "meta_mean_motion": 14.04849132,
        "meta_eccentricity": 0.00068552,
        "meta_inclination": 50.0055,
        "meta_ra_of_asc_node": 114.2227,
        "meta_arg_of_pericenter": 274.5312,
        "meta_mean_anomaly": 85.4809,
        "meta_ephemeris_type": 0,
        "meta_classification_type": "U",
        "meta_norad_cat_id": 66916,
        "meta_element_set_no": 999,
        "meta_rev_at_epoch": 101,
        "meta_bstar": 0.00017759821,
        "meta_mean_motion_dot": 1.35e-06,
        "meta_mean_motion_ddot": 0,
        "tle_line1": "1 66916U 25285B   25347.48377878  .00000135  00000+0  17760-3 0  9995",
        "tle_line2": "2 66916  50.0055 114.2227 0006855 274.5312  85.4809 14.04849132  1014"
      },
      "geometry": {
        "type": "Point",
        "coordinates": [
          -14.321877572692491,
          -44.24465458026868
        ]
      }
    },
    {
      "type": "Feature",
      "properties": {
        "norad_id": 66917,
        "name": "HULIANWANG DIGUI-107",
        "group": "last-30-days",
        "lat": -46.00224268383677,
        "lon": -8.78108892770183,
        "alt_km": 874.7107748408898,
        "timestamp": "2025-12-14T07:33:18.189483+00:00",
        "meta_object_name": "HULIANWANG DIGUI-107",
        "meta_object_id": "2025-285C",
        "meta_epoch": "2025-12-13T16:43:10.693920",
        "meta_mean_motion": 14.05580654,
        "meta_eccentricity": 0.00075459,
        "meta_inclination": 50.0017,
        "meta_ra_of_asc_node": 113.3472,
        "meta_arg_of_pericenter": 288.3327,
        "meta_mean_anomaly": 71.6758,
        "meta_ephemeris_type": 0,
        "meta_classification_type": "U",
        "meta_norad_cat_id": 66917,
        "meta_element_set_no": 999,
        "meta_rev_at_epoch": 104,
        "meta_bstar": 1.126469e-05,
        "meta_mean_motion_dot": -1.34e-06,
        "meta_mean_motion_ddot": 0,
        "tle_line1": "1 66917U 25285C   25347.69665155 -.00000134  00000+0  11265-4 0  9992",
        "tle_line2": "2 66917  50.0017 113.3472 0007545 288.3327  71.6758 14.05580654  1046"
      },
      "geometry": {
        "type": "Point",
        "coordinates": [
          -8.78108892770183,
          -46.00224268383677
        ]
      }
    },
    {
      "type": "Feature",
      "properties": {
        "norad_id": 66918,
        "name": "HULIANWANG DIGUI-108",
        "group": "last-30-days",
        "lat": -47.242374198349964,
        "lon": -3.960683303516806,
        "alt_km": 874.50532140424,
        "timestamp": "2025-12-14T07:33:18.189506+00:00",
        "meta_object_name": "HULIANWANG DIGUI-108",
        "meta_object_id": "2025-285D",
        "meta_epoch": "2025-12-13T16:42:15.452352",
        "meta_mean_motion": 14.05705711,
        "meta_eccentricity": 0.00064835,
        "meta_inclination": 50.0038,
        "meta_ra_of_asc_node": 113.3463,
        "meta_arg_of_pericenter": 283.5013,
        "meta_mean_anomaly": 76.5169,
        "meta_ephemeris_type": 0,
        "meta_classification_type": "U",
        "meta_norad_cat_id": 66918,
        "meta_element_set_no": 999,
        "meta_rev_at_epoch": 104,
        "meta_bstar": 0.00015686326,
        "meta_mean_motion_dot": 1.05e-06,
        "meta_mean_motion_ddot": 0,
        "tle_line1": "1 66918U 25285D   25347.69601218  .00000105  00000+0  15686-3 0  9990",
        "tle_line2": "2 66918  50.0038 113.3463 0006483 283.5013  76.5169 14.05705711  1042"
      },
      "geometry": {
        "type": "Point",
        "coordinates": [
          -3.960683303516806,
          -47.242374198349964
        ]
      }
    },
    {
      "type": "Feature",
      "properties": {
        "norad_id": 66919,
        "name": "HULIANWANG DIGUI-109",
        "group": "last-30-days",
        "lat": -47.36797566352275,
        "lon": -3.416484897646432,
        "alt_km": 874.2893676140884,
        "timestamp": "2025-12-14T07:33:18.189517+00:00",
        "meta_object_name": "HULIANWANG DIGUI-109",
        "meta_object_id": "2025-285E",
        "meta_epoch": "2025-12-13T16:42:08.694144",
        "meta_mean_motion": 14.05716799,
        "meta_eccentricity": 0.00078636,
        "meta_inclination": 50.0064,
        "meta_ra_of_asc_node": 113.3495,
        "meta_arg_of_pericenter": 294.8472,
        "meta_mean_anomaly": 65.1615,
        "meta_ephemeris_type": 0,
        "meta_classification_type": "U",
        "meta_norad_cat_id": 66919,
        "meta_element_set_no": 999,
        "meta_rev_at_epoch": 104,
        "meta_bstar": -4.80549e-07,
        "meta_mean_motion_dot": -1.53e-06,
        "meta_mean_motion_ddot": 0,
        "tle_line1": "1 66919U 25285E   25347.69593396 -.00000153  00000+0 -48055-6 0  9992",
        "tle_line2": "2 66919  50.0064 113.3495 0007863 294.8472  65.1615 14.05716799  1042"
      },
      "geometry": {
        "type": "Point",
        "coordinates": [
          -3.416484897646432,
          -47.36797566352275
        ]
      }
    },
    {
      "type": "Feature",
      "properties": {
        "norad_id": 66920,
        "name": "HULIANWANG DIGUI-110",
        "group": "last-30-days",
        "lat": -48.441172905765285,
        "lon": 2.0334318254087638,
        "alt_km": 874.6072482591062,
        "timestamp": "2025-12-14T07:33:18.189529+00:00",
        "meta_object_name": "HULIANWANG DIGUI-110",
        "meta_object_id": "2025-285F",
        "meta_epoch": "2025-12-13T16:41:09.451392",
        "meta_mean_motion": 14.05851648,
        "meta_eccentricity": 0.00058452,
        "meta_inclination": 50.0097,
        "meta_ra_of_asc_node": 113.3499,
        "meta_arg_of_pericenter": 291.7796,
        "meta_mean_anomaly": 68.2487,
        "meta_ephemeris_type": 0,
        "meta_classification_type": "U",
        "meta_norad_cat_id": 66920,
        "meta_element_set_no": 999,
        "meta_rev_at_epoch": 104,
        "meta_bstar": 0.00016655375,
        "meta_mean_motion_dot": 1.22e-06,
        "meta_mean_motion_ddot": 0,
        "tle_line1": "1 66920U 25285F   25347.69524828  .00000122  00000+0  16655-3 0  9990",
        "tle_line2": "2 66920  50.0097 113.3499 0005845 291.7796  68.2487 14.05851648  1041"
      },
      "geometry": {
        "type": "Point",
        "coordinates": [
          2.0334318254087638,
          -48.441172905765285
        ]
      }
    }
  ]
}